IRIDIUM 119             
1 42959U 17061E   25035.53762244 -.00000077  00000+0 -34566-4 0  9995
2 42959  86.3944 233.1604 0002071  98.2503 261.8928 14.34217298383484
IRIDIUM 107             
1 42960U 17061F   25035.48689808  .00000208  00000+0  67310-4 0  9992
2 42960  86.3941 233.2000 0002403  99.2035 260.9432 14.34220140383484
IRIDIUM 132             
1 42961U 17061G   25035.49322101  .00000193  00000+0  61950-4 0  9991
2 42961  86.3940 233.1803 0002189  91.0290 269.1156 14.34219894383486
IRIDIUM 136             
1 42962U 17061H   25035.52494136  .00000170  00000+0  53641-4 0  9997
2 42962  86.3943 233.1714 0002212 101.6850 258.4594 14.34220379383508
IRIDIUM 139             
1 42963U 17061J   25035.53128737  .00000204  00000+0  65743-4 0  9994
2 42963  86.3943 233.2226 0002316  94.9742 265.1718 14.34216305383515
IRIDIUM 125             
1 42964U 17061K   25035.51860312  .00000193  00000+0  61772-4 0  9990
2 42964  86.3944 233.2798 0002030 108.4461 251.6956 14.34221117383525
IRIDIUM 135             
1 43070U 17083A   25035.42295153  .00000067  00000+0  16990-4 0  9990
2 43070  86.4024 170.0659 0001969  89.7544 270.3878 14.34215655372801
IRIDIUM 138             
1 43071U 17083B   25035.65762747  .00000644  00000+0  22299-3 0  9993
2 43071  86.4017 169.6567 0001581 111.8407 248.2957 14.34219289372822
